[{"OBJECT_NAME":"QIANFAN-90","OBJECT_ID":"2025-046T","EPOCH":"2026-03-09T22:20:08.623104","MEAN_MOTION":13.51010156,"ECCENTRICITY":0.00119116,"INCLINATION":88.9753,"RA_OF_ASC_NODE":311.006,"ARG_OF_PERICENTER":228.9194,"MEAN_ANOMALY":131.0929,"EPHEMERIS_TYPE":0,"CLASSIFICATION_TYPE":"U","NORAD_CAT_ID":63176,"ELEMENT_SET_NO":999,"REV_AT_EPOCH":5919,"BSTAR":0.00024783243,"MEAN_MOTION_DOT":1.72e-6,"MEAN_MOTION_DDOT":0},{"OBJECT_NAME":"TRANSAT","OBJECT_ID":"1977-106A","EPOCH":"2026-03-09T22:36:56.309760","MEAN_MOTION":13.48958064,"ECCENTRICITY":0.00238578,"INCLINATION":89.6398,"RA_OF_ASC_NODE":75.4661,"ARG_OF_PERICENTER":304.6792,"MEAN_ANOMALY":116.4808,"EPHEMERIS_TYPE":0,"CLASSIFICATION_TYPE":"U","NORAD_CAT_ID":10457,"ELEMENT_SET_NO":999,"REV_AT_EPOCH":37919,"BSTAR":0.00012409053,"MEAN_MOTION_DOT":8.8e-7,"MEAN_MOTION_DDOT":0}]
